STARLINK-1977
1 17575C 21009AD  21326.09096371 -.00015221  00000-0 -10197-2 0  3266
2 17575  53.0541 243.3280 0002008  69.7399   8.6439 15.06418284    13
